CTC2_L_00418001-01
1 10000U 25085HF  26075.70046296  .00000000  00000+0  00000-0 0  9994
2 10000  95.0000   0.0000 0000000   0.0000   0.0000 12.65579349    19
CTC2_L_00418001-02
1 10001U 22116LB  26075.70046296  .00000000  00000+0  00000-0 0  9997
2 10001  95.0000   0.0000 0000000   0.0000  90.0000 12.65579349    19
CTC2_L_00418001-03
1 10002U 23954QJ  26075.70046296  .00000000  00000+0  00000-0 0  9999
2 10002  95.0000   0.0000 0000000   0.0000 180.0000 12.65579349    10
CTC2_L_00418001-04
1 10003U 26951KG  26075.70046296  .00000000  00000+0  00000-0 0  9990
2 10003  95.0000   0.0000 0000000   0.0000 270.0000 12.65579349    11
CTC2_L_00418002-01
1 10004U 23394KE  26075.70046296  .00000000  00000+0  00000-0 0  9999
2 10004  95.0000  12.0000 0000000   0.0000  12.0000 12.65579349    19
CTC2_L_00418002-02
1 10005U 26710HN  26075.70046296  .00000000  00000+0  00000-0 0  9995
2 10005  95.0000  12.0000 0000000   0.0000 102.0000 12.65579349    10
CTC2_L_00418002-03
1 10006U 24179OD  26075.70046296  .00000000  00000+0  00000-0 0  9993
2 10006  95.0000  12.0000 0000000   0.0000 192.0000 12.65579349    10
CTC2_L_00418002-04
1 10007U 22223NI  26075.70046296  .00000000  00000+0  00000-0 0  9992
2 10007  95.0000  12.0000 0000000   0.0000 282.0000 12.65579349    11
CTC2_L_00418003-01
1 10008U 24484TH  26075.70046296  .00000000  00000+0  00000-0 0  9994
2 10008  95.0000  24.0000 0000000   0.0000  24.0000 12.65579349    19
CTC2_L_00418003-02
1 10009U 24392OU  26075.70046296  .00000000  00000+0  00000-0 0  9993
2 10009  95.0000  24.0000 0000000   0.0000 114.0000 12.65579349    10
CTC2_L_00418003-03
1 10010U 25502CZ  26075.70046296  .00000000  00000+0  00000-0 0  9999
2 10010  95.0000  24.0000 0000000   0.0000 204.0000 12.65579349    12
CTC2_L_00418003-04
1 10011U 26078UX  26075.70046296  .00000000  00000+0  00000-0 0  9999
2 10011  95.0000  24.0000 0000000   0.0000 294.0000 12.65579349    12
CTC2_L_00418004-01
1 10012U 22828JM  26075.70046296  .00000000  00000+0  00000-0 0  9999
2 10012  95.0000  36.0000 0000000   0.0000  36.0000 12.65579349    10
CTC2_L_00418004-02
1 10013U 22954QV  26075.70046296  .00000000  00000+0  00000-0 0  9990
2 10013  95.0000  36.0000 0000000   0.0000 126.0000 12.65579349    11
CTC2_L_00418004-03
1 10014U 25726VK  26075.70046296  .00000000  00000+0  00000-0 0  9991
2 10014  95.0000  36.0000 0000000   0.0000 216.0000 12.65579349    12
CTC2_L_00418004-04
1 10015U 25820N   26075.70046296  .00000000  00000+0  00000-0 0  9997
2 10015  95.0000  36.0000 0000000   0.0000 306.0000 12.65579349    13
CTC2_L_00418005-01
1 10016U 25997YJ  26075.70046296  .00000000  00000+0  00000-0 0  9993
2 10016  95.0000  48.0000 0000000   0.0000  48.0000 12.65579349    10
CTC2_L_00418005-02
1 10017U 22674LB  26075.70046296  .00000000  00000+0  00000-0 0  9993
2 10017  95.0000  48.0000 0000000   0.0000 138.0000 12.65579349    11
CTC2_L_00418005-03
1 10018U 22820DW  26075.70046296  .00000000  00000+0  00000-0 0  9997
2 10018  95.0000  48.0000 0000000   0.0000 228.0000 12.65579349    12
CTC2_L_00418005-04
1 10019U 25846WZ  26075.70046296  .00000000  00000+0  00000-0 0  9999
2 10019  95.0000  48.0000 0000000   0.0000 318.0000 12.65579349    13
CTC2_L_00418006-01
1 10020U 22293MB  26075.70046296  .00000000  00000+0  00000-0 0  9994
2 10020  95.0000  60.0000 0000000   0.0000  60.0000 12.65579349    13
CTC2_L_00418006-02
1 10021U 24678HG  26075.70046296  .00000000  00000+0  00000-0 0  9994
2 10021  95.0000  60.0000 0000000   0.0000 150.0000 12.65579349    14
CTC2_L_00418006-03
1 10022U 24699TK  26075.70046296  .00000000  00000+0  00000-0 0  9998
2 10022  95.0000  60.0000 0000000   0.0000 240.0000 12.65579349    15
CTC2_L_00418006-04
1 10023U 22120OW  26075.70046296  .00000000  00000+0  00000-0 0  9996
2 10023  95.0000  60.0000 0000000   0.0000 330.0000 12.65579349    16
CTC2_L_00418007-01
1 10024U 22686UI  26075.70046296  .00000000  00000+0  00000-0 0  9994
2 10024  95.0000  72.0000 0000000   0.0000  72.0000 12.65579349    13
CTC2_L_00418007-02
1 10025U 25297ME  26075.70046296  .00000000  00000+0  00000-0 0  9996
2 10025  95.0000  72.0000 0000000   0.0000 162.0000 12.65579349    14
CTC2_L_00418007-03
1 10026U 22145LU  26075.70046296  .00000000  00000+0  00000-0 0  9996
2 10026  95.0000  72.0000 0000000   0.0000 252.0000 12.65579349    15
CTC2_L_00418007-04
1 10027U 23844VA  26075.70046296  .00000000  00000+0  00000-0 0  9994
2 10027  95.0000  72.0000 0000000   0.0000 342.0000 12.65579349    16
CTC2_L_00418008-01
1 10028U 25216BS  26075.70046296  .00000000  00000+0  00000-0 0  9990
2 10028  95.0000  84.0000 0000000   0.0000  84.0000 12.65579349    13
CTC2_L_00418008-02
1 10029U 26237QG  26075.70046296  .00000000  00000+0  00000-0 0  9995
2 10029  95.0000  84.0000 0000000   0.0000 174.0000 12.65579349    14
CTC2_L_00418008-03
1 10030U 26760VH  26075.70046296  .00000000  00000+0  00000-0 0  9998
2 10030  95.0000  84.0000 0000000   0.0000 264.0000 12.65579349    16
CTC2_L_00418008-04
1 10031U 23777V   26075.70046296  .00000000  00000+0  00000-0 0  9994
2 10031  95.0000  84.0000 0000000   0.0000 354.0000 12.65579349    17
CTC2_L_00418009-01
1 10032U 24705MX  26075.70046296  .00000000  00000+0  00000-0 0  9997
2 10032  95.0000  96.0000 0000000   0.0000  96.0000 12.65579349    14
CTC2_L_00418009-02
1 10033U 26396ZE  26075.70046296  .00000000  00000+0  00000-0 0  9996
2 10033  95.0000  96.0000 0000000   0.0000 186.0000 12.65579349    15
CTC2_L_00418009-03
1 10034U 22261LU  26075.70046296  .00000000  00000+0  00000-0 0  9994
2 10034  95.0000  96.0000 0000000   0.0000 276.0000 12.65579349    16
CTC2_L_00418009-04
1 10035U 23431DS  26075.70046296  .00000000  00000+0  00000-0 0  9995
2 10035  95.0000  96.0000 0000000   0.0000   6.0000 12.65579349    18
CTC2_L_00418010-01
1 10036U 24675PZ  26075.70046296  .00000000  00000+0  00000-0 0  9997
2 10036  95.0000 108.0000 0000000   0.0000 108.0000 12.65579349    16
CTC2_L_00418010-02
1 10037U 22977UL  26075.70046296  .00000000  00000+0  00000-0 0  9991
2 10037  95.0000 108.0000 0000000   0.0000 198.0000 12.65579349    16
CTC2_L_00418010-03
1 10038U 23487AO  26075.70046296  .00000000  00000+0  00000-0 0  9999
2 10038  95.0000 108.0000 0000000   0.0000 288.0000 12.65579349    17
CTC2_L_00418010-04
1 10039U 26004XZ  26075.70046296  .00000000  00000+0  00000-0 0  9998
2 10039  95.0000 108.0000 0000000   0.0000  18.0000 12.65579349    19
CTC2_L_00418011-01
1 10040U 24962TE  26075.70046296  .00000000  00000+0  00000-0 0  9991
2 10040  95.0000 120.0000 0000000   0.0000 120.0000 12.65579349    19
CTC2_L_00418011-02
1 10041U 24781VL  26075.70046296  .00000000  00000+0  00000-0 0  9991
2 10041  95.0000 120.0000 0000000   0.0000 210.0000 12.65579349    10
CTC2_L_00418011-03
1 10042U 22204PA  26075.70046296  .00000000  00000+0  00000-0 0  9990
2 10042  95.0000 120.0000 0000000   0.0000 300.0000 12.65579349    11
CTC2_L_00418011-04
1 10043U 24008HU  26075.70046296  .00000000  00000+0  00000-0 0  9995
2 10043  95.0000 120.0000 0000000   0.0000  30.0000 12.65579349    12
CTC2_L_00418012-01
1 10044U 24653JR  26075.70046296  .00000000  00000+0  00000-0 0  9992
2 10044  95.0000 132.0000 0000000   0.0000 132.0000 12.65579349    19
CTC2_L_00418012-02
1 10045U 22991JD  26075.70046296  .00000000  00000+0  00000-0 0  9996
2 10045  95.0000 132.0000 0000000   0.0000 222.0000 12.65579349    10
CTC2_L_00418012-03
1 10046U 25607VU  26075.70046296  .00000000  00000+0  00000-0 0  9994
2 10046  95.0000 132.0000 0000000   0.0000 312.0000 12.65579349    11
CTC2_L_00418012-04
1 10047U 23676YH  26075.70046296  .00000000  00000+0  00000-0 0  9999
2 10047  95.0000 132.0000 0000000   0.0000  42.0000 12.65579349    12
CTC2_L_00418013-01
1 10048U 25755TA  26075.70046296  .00000000  00000+0  00000-0 0  9990
2 10048  95.0000 144.0000 0000000   0.0000 144.0000 12.65579349    19
CTC2_L_00418013-02
1 10049U 25411SH  26075.70046296  .00000000  00000+0  00000-0 0  9990
2 10049  95.0000 144.0000 0000000   0.0000 234.0000 12.65579349    10
CTC2_L_00418013-03
1 10050U 23420ZE  26075.70046296  .00000000  00000+0  00000-0 0  9990
2 10050  95.0000 144.0000 0000000   0.0000 324.0000 12.65579349    12
CTC2_L_00418013-04
1 10051U 26548YC  26075.70046296  .00000000  00000+0  00000-0 0  9995
2 10051  95.0000 144.0000 0000000   0.0000  54.0000 12.65579349    13
CTC2_L_00418014-01
1 10052U 22362DL  26075.70046296  .00000000  00000+0  00000-0 0  9996
2 10052  95.0000 156.0000 0000000   0.0000 156.0000 12.65579349    10
CTC2_L_00418014-02
1 10053U 26618BK  26075.70046296  .00000000  00000+0  00000-0 0  9995
2 10053  95.0000 156.0000 0000000   0.0000 246.0000 12.65579349    11
CTC2_L_00418014-03
1 10054U 24336SO  26075.70046296  .00000000  00000+0  00000-0 0  9991
2 10054  95.0000 156.0000 0000000   0.0000 336.0000 12.65579349    12
CTC2_L_00418014-04
1 10055U 26795AQ  26075.70046296  .00000000  00000+0  00000-0 0  9993
2 10055  95.0000 156.0000 0000000   0.0000  66.0000 12.65579349    13
CTC2_L_00418015-01
1 10056U 22923SG  26075.70046296  .00000000  00000+0  00000-0 0  9993
2 10056  95.0000 168.0000 0000000   0.0000 168.0000 12.65579349    10
CTC2_L_00418015-02
1 10057U 25913CA  26075.70046296  .00000000  00000+0  00000-0 0  9996
2 10057  95.0000 168.0000 0000000   0.0000 258.0000 12.65579349    11
CTC2_L_00418015-03
1 10058U 26654SJ  26075.70046296  .00000000  00000+0  00000-0 0  9990
2 10058  95.0000 168.0000 0000000   0.0000 348.0000 12.65579349    12
CTC2_L_00418015-04
1 10059U 25355SX  26075.70046296  .00000000  00000+0  00000-0 0  9998
2 10059  95.0000 168.0000 0000000   0.0000  78.0000 12.65579349    13
CTC2_L_00418016-01
1 10060U 23996O   26075.70046296  .00000000  00000+0  00000-0 0  9999
2 10060  95.0000 180.0000 0000000   0.0000 180.0000 12.65579349    13
CTC2_L_00418016-02
1 10061U 26390OM  26075.70046296  .00000000  00000+0  00000-0 0  9991
2 10061  95.0000 180.0000 0000000   0.0000 270.0000 12.65579349    14
